FENGYUN 1C DEB          
1 30800U 99025AUJ 17345.16945642  .00002386  00000-0  47732-3 0  9998
2 30800  99.0131 239.3836 0048084 160.5610 356.5796 14.62199572565691
